ONEWEB-0387             
1 49313U 21090AL  25327.98999689  .00000108  00000+0  23433-3 0  9994
2 49313  87.9179 315.3928 0001574  88.3740 271.7573 13.20773266202734
ONEWEB-0388             
1 49314U 21090AM  25328.02013640  .00000088  00000+0  18657-3 0  9994
2 49314  87.9198 345.8017 0001799  98.3768 261.7569 13.19727581199357
ONEWEB-0389             
1 50469U 21132A   25327.71543047  .00000021  00000+0  21717-4 0  9997
2 50469  87.9135  46.7291 0001525 113.0890 247.0402 13.17649374191020
ONEWEB-0390             
1 50470U 21132B   25327.71711747 -.00000005  00000+0 -46296-4 0  9996
2 50470  87.9128  46.7318 0001715  93.8109 266.3219 13.17647015191023
ONEWEB-0391             
1 50471U 21132C   25327.71880273  .00000004  00000+0 -23985-4 0  9996
2 50471  87.9123  46.7418 0000957 112.9094 247.2138 13.17646946191023
ONEWEB-0392             
1 50472U 21132D   25327.74917657  .00000056  00000+0  11189-3 0  9995
2 50472  87.9135  46.6862 0001567 116.7023 243.4269 13.17650043191061
ONEWEB-0393             
1 50473U 21132E   25327.72232330  .00000004  00000+0 -24119-4 0  9994
2 50473  87.9137  46.7134 0001651 108.3816 251.7495 13.17650225191052
ONEWEB-0394             
1 50474U 21132F   25328.07952955  .00000070  00000+0  14451-3 0  9995
2 50474  87.9202  16.1770 0001784 104.6925 255.4405 13.18684879194564
